[{"OBJECT_NAME":"TEVEL2-5","OBJECT_ID":"2025-052E","EPOCH":"2026-03-09T23:11:54.246048","MEAN_MOTION":15.30817434,"ECCENTRICITY":0.00047002,"INCLINATION":97.4013,"RA_OF_ASC_NODE":325.3677,"ARG_OF_PERICENTER":95.3936,"MEAN_ANOMALY":264.7842,"EPHEMERIS_TYPE":0,"CLASSIFICATION_TYPE":"U","NORAD_CAT_ID":63214,"ELEMENT_SET_NO":999,"REV_AT_EPOCH":5491,"BSTAR":0.00071764727,"MEAN_MOTION_DOT":0.00021339,"MEAN_MOTION_DDOT":0},{"OBJECT_NAME":"STARLINK-34897","OBJECT_ID":"2025-176Q","EPOCH":"2026-03-09T12:48:58.027680","MEAN_MOTION":15.30186523,"ECCENTRICITY":0.0001153,"INCLINATION":53.1581,"RA_OF_ASC_NODE":153.667,"ARG_OF_PERICENTER":62.1896,"MEAN_ANOMALY":297.9221,"EPHEMERIS_TYPE":0,"CLASSIFICATION_TYPE":"U","NORAD_CAT_ID":65212,"ELEMENT_SET_NO":999,"REV_AT_EPOCH":3309,"BSTAR":0.0010109101,"MEAN_MOTION_DOT":0.00029688,"MEAN_MOTION_DDOT":0}]
